start=new Date('2021-11-03T00:00:00.000Z').valueOf();
sats=[{"CLASSIFICATION_TYPE":"U","BSTAR":"0.00037000000000","PERIOD":"95.592","EPHEMERIS_TYPE":"0","OBJECT_ID":"2021-009F","OBJECT_NAME":"STARLINK-1951","INCLINATION":"53.0551","MEAN_MOTION_DOT":"0.00005235","COUNTRY_CODE":"US","GP_ID":"188775102","CENTER_NAME":"EARTH","REV_AT_EPOCH":"4159","FILE":"3198350","SITE":"AFETR","TLE_LINE1":"1 47553U 21009F   21306.72809686  .00005235  00000-0  37000-3 0  9992","EPOCH":"2021-11-02T17:28:27.568704","TIME_SYSTEM":"UTC","OBJECT_TYPE":"PAYLOAD","LAUNCH_DATE":"2021-02-04","MEAN_ELEMENT_THEORY":"SGP4","MEAN_ANOMALY":"57.8885","MEAN_MOTION_DDOT":"0.0000000000000","TLE_LINE2":"2 47553  53.0551 300.2646 0005773 302.1544  57.8885 15.06408068 41595","PERIAPSIS":"543.191","SEMIMAJOR_AXIS":"6925.324","ELEMENT_SET_NO":"999","ECCENTRICITY":"0.00057730","MEAN_MOTION":"15.06408068","REF_FRAME":"TEME","ARG_OF_PERICENTER":"302.1544","RA_OF_ASC_NODE":"300.2646","RCS_SIZE":"LARGE","DECAY_DATE":null,"APOAPSIS":"551.187","NORAD_CAT_ID":"47553"},{"MEAN_MOTION":"15.06401899","RCS_SIZE":"LARGE","RA_OF_ASC_NODE":"321.6468","ARG_OF_PERICENTER":"54.0872","REF_FRAME":"TEME","DECAY_DATE":null,"APOAPSIS":"550.783","NORAD_CAT_ID":"47554","TLE_LINE1":"1 47554U 21009G   21306.41665381 -.00000710  00000-0 -28628-4 0  9993","OBJECT_TYPE":"PAYLOAD","TIME_SYSTEM":"UTC","EPOCH":"2021-11-02T09:59:58.889184","MEAN_MOTION_DDOT":"0.0000000000000","TLE_LINE2":"2 47554  53.0562 321.6468 0005163  54.0872 306.0595 15.06401899 41263","MEAN_ELEMENT_THEORY":"SGP4","MEAN_ANOMALY":"306.0595","LAUNCH_DATE":"2021-02-04","SEMIMAJOR_AXIS":"6925.343","ELEMENT_SET_NO":"999","ECCENTRICITY":"0.00051630","PERIAPSIS":"543.632","GP_ID":"188739124","FILE":"3197731","CENTER_NAME":"EARTH","REV_AT_EPOCH":"4126","SITE":"AFETR","CLASSIFICATION_TYPE":"U","PERIOD":"95.592","BSTAR":"-0.00002862800000","INCLINATION":"53.0562","MEAN_MOTION_DOT":"-0.00000710","OBJECT_ID":"2021-009G","OBJECT_NAME":"STARLINK-1953","EPHEMERIS_TYPE":"0","COUNTRY_CODE":"US"},{"COUNTRY_CODE":"US","INCLINATION":"53.0542","MEAN_MOTION_DOT":"0.00000937","OBJECT_NAME":"STARLINK-1954","OBJECT_ID":"2021-009H","EPHEMERIS_TYPE":"0","PERIOD":"95.593","BSTAR":"0.00008182400000","CLASSIFICATION_TYPE":"U","SITE":"AFETR","FILE":"3198350","REV_AT_EPOCH":"4145","CENTER_NAME":"EARTH","GP_ID":"188774600","SEMIMAJOR_AXIS":"6925.369","ELEMENT_SET_NO":"999","ECCENTRICITY":"0.00017280","PERIAPSIS":"546.037","MEAN_MOTION_DDOT":"0.0000000000000","TLE_LINE2":"2 47555  53.0542 310.2870 0001728  57.6218 302.4938 15.06393384 41450","MEAN_ANOMALY":"302.4938","MEAN_ELEMENT_THEORY":"SGP4","LAUNCH_DATE":"2021-02-04","TIME_SYSTEM":"UTC","OBJECT_TYPE":"PAYLOAD","EPOCH":"2021-11-02T17:21:50.857920","TLE_LINE1":"1 47555U 21009H   21306.72350530  .00000937  00000-0  81824-4 0  9991","APOAPSIS":"548.431","NORAD_CAT_ID":"47555","DECAY_DATE":null,"RA_OF_ASC_NODE":"310.2870","RCS_SIZE":"LARGE","ARG_OF_PERICENTER":"57.6218","REF_FRAME":"TEME","MEAN_MOTION":"15.06393384"},{"GP_ID":"188738131","FILE":"3197731","REV_AT_EPOCH":"4113","CENTER_NAME":"EARTH","SITE":"AFETR","CLASSIFICATION_TYPE":"U","PERIOD":"95.592","BSTAR":"0.00004103100000","INCLINATION":"53.0548","MEAN_MOTION_DOT":"0.00000330","OBJECT_NAME":"STARLINK-1955","OBJECT_ID":"2021-009J","EPHEMERIS_TYPE":"0","COUNTRY_CODE":"US","MEAN_MOTION":"15.06398670","RCS_SIZE":"LARGE","RA_OF_ASC_NODE":"331.2996","ARG_OF_PERICENTER":"76.1022","REF_FRAME":"TEME","DECAY_DATE":null,"NORAD_CAT_ID":"47556","APOAPSIS":"548.180","TLE_LINE1":"1 47556U 21009J   21306.49313102  .00000330  00000-0  41031-4 0  9993","TIME_SYSTEM":"UTC","OBJECT_TYPE":"PAYLOAD","EPOCH":"2021-11-02T11:50:06.520128","MEAN_MOTION_DDOT":"0.0000000000000","TLE_LINE2":"2 47556  53.0548 331.2996 0001389  76.1022 284.0122 15.06398670 41139","MEAN_ANOMALY":"284.0122","MEAN_ELEMENT_THEORY":"SGP4","LAUNCH_DATE":"2021-02-04","SEMIMAJOR_AXIS":"6925.353","ECCENTRICITY":"0.00013890","ELEMENT_SET_NO":"999","PERIAPSIS":"546.256"},{"MEAN_ELEMENT_THEORY":"SGP4","MEAN_ANOMALY":"289.2484","TLE_LINE2":"2 47557  53.0553 331.4861 0001292  70.8645 289.2484 15.06402674 41132","MEAN_MOTION_DDOT":"0.0000000000000","LAUNCH_DATE":"2021-02-04","ELEMENT_SET_NO":"999","SEMIMAJOR_AXIS":"6925.340","ECCENTRICITY":"0.00012920","PERIAPSIS":"546.311","TLE_LINE1":"1 47557U 21009K   21306.45626938 -.00001015  00000-0 -49246-4 0  9993","EPOCH":"2021-11-02T10:57:01.674432","OBJECT_TYPE":"PAYLOAD","TIME_SYSTEM":"UTC","DECAY_DATE":null,"APOAPSIS":"548.100","NORAD_CAT_ID":"47557","MEAN_MOTION":"15.06402674","RCS_SIZE":"LARGE","RA_OF_ASC_NODE":"331.4861","ARG_OF_PERICENTER":"70.8645","REF_FRAME":"TEME","INCLINATION":"53.0553","MEAN_MOTION_DOT":"-0.00001015","EPHEMERIS_TYPE":"0","OBJECT_ID":"2021-009K","OBJECT_NAME":"STARLINK-1956","COUNTRY_CODE":"US","CLASSIFICATION_TYPE":"U","PERIOD":"95.592","BSTAR":"-0.00004924600000","FILE":"3197731","REV_AT_EPOCH":"4113","CENTER_NAME":"EARTH","SITE":"AFETR","GP_ID":"188738879"},{"APOAPSIS":"548.537","NORAD_CAT_ID":"47558","DECAY_DATE":null,"REF_FRAME":"TEME","ARG_OF_PERICENTER":"77.1323","RCS_SIZE":"LARGE","RA_OF_ASC_NODE":"300.3603","MEAN_MOTION":"15.06392100","PERIAPSIS":"545.939","SEMIMAJOR_AXIS":"6925.373","ELEMENT_SET_NO":"999","ECCENTRICITY":"0.00018760","LAUNCH_DATE":"2021-02-04","MEAN_MOTION_DDOT":"0.0000000000000","TLE_LINE2":"2 47558  53.0528 300.3603 0001876  77.1323 282.9876 15.06392100 41581","MEAN_ELEMENT_THEORY":"SGP4","MEAN_ANOMALY":"282.9876","OBJECT_TYPE":"PAYLOAD","TIME_SYSTEM":"UTC","EPOCH":"2021-11-02T16:51:19.908000","TLE_LINE1":"1 47558U 21009L   21306.70231375 -.00001307  00000-0 -68861-4 0  9997","SITE":"AFETR","REV_AT_EPOCH":"4158","CENTER_NAME":"EARTH","FILE":"3198350","GP_ID":"188773851","COUNTRY_CODE":"US","OBJECT_NAME":"STARLINK-1957","OBJECT_ID":"2021-009L","EPHEMERIS_TYPE":"0","INCLINATION":"53.0528","MEAN_MOTION_DOT":"-0.00001307","BSTAR":"-0.00006886100000","PERIOD":"95.593","CLASSIFICATION_TYPE":"U"},{"LAUNCH_DATE":"2021-02-04","MEAN_MOTION_DDOT":"0.0000000000000","TLE_LINE2":"2 47559  53.0545 290.5364 0001447  84.2246 275.8908 15.06396825 41723","MEAN_ANOMALY":"275.8908","MEAN_ELEMENT_THEORY":"SGP4","PERIAPSIS":"546.221","ELEMENT_SET_NO":"999","SEMIMAJOR_AXIS":"6925.358","ECCENTRICITY":"0.00014470","TLE_LINE1":"1 47559U 21009M   21306.66637180 -.00000061  00000-0  14819-4 0  9996","TIME_SYSTEM":"UTC","OBJECT_TYPE":"PAYLOAD","EPOCH":"2021-11-02T15:59:34.523520","DECAY_DATE":null,"APOAPSIS":"548.225","NORAD_CAT_ID":"47559","MEAN_MOTION":"15.06396825","ARG_OF_PERICENTER":"84.2246","REF_FRAME":"TEME","RA_OF_ASC_NODE":"290.5364","RCS_SIZE":"LARGE","OBJECT_NAME":"STARLINK-1958","OBJECT_ID":"2021-009M","EPHEMERIS_TYPE":"0","INCLINATION":"53.0545","MEAN_MOTION_DOT":"-0.00000061","COUNTRY_CODE":"US","CLASSIFICATION_TYPE":"U","BSTAR":"0.00001481900000","PERIOD":"95.592","REV_AT_EPOCH":"4172","CENTER_NAME":"EARTH","FILE":"3198350","SITE":"AFETR","GP_ID":"188774101"},{"MEAN_MOTION":"15.06397945","REF_FRAME":"TEME","ARG_OF_PERICENTER":"70.8163","RCS_SIZE":"LARGE","RA_OF_ASC_NODE":"290.5757","DECAY_DATE":null,"APOAPSIS":"548.309","NORAD_CAT_ID":"47560","TLE_LINE1":"1 47560U 21009N   21306.65900159 -.00000054  00000-0  15291-4 0  9993","OBJECT_TYPE":"PAYLOAD","TIME_SYSTEM":"UTC","EPOCH":"2021-11-02T15:48:57.737376","LAUNCH_DATE":"2021-02-04","TLE_LINE2":"2 47560  53.0538 290.5757 0001572  70.8163 289.2996 15.06397945 41721","MEAN_MOTION_DDOT":"0.0000000000000","MEAN_ELEMENT_THEORY":"SGP4","MEAN_ANOMALY":"289.2996","PERIAPSIS":"546.131","ELEMENT_SET_NO":"999","SEMIMAJOR_AXIS":"6925.355","ECCENTRICITY":"0.00015720","GP_ID":"188775352","REV_AT_EPOCH":"4172","CENTER_NAME":"EARTH","FILE":"3198350","SITE":"AFETR","CLASSIFICATION_TYPE":"U","BSTAR":"0.00001529100000","PERIOD":"95.592","OBJECT_NAME":"STARLINK-1959","OBJECT_ID":"2021-009N","EPHEMERIS_TYPE":"0","MEAN_MOTION_DOT":"-0.00000054","INCLINATION":"53.0538","COUNTRY_CODE":"US"},{"CLASSIFICATION_TYPE":"U","BSTAR":"-0.00012209000000","PERIOD":"95.593","EPHEMERIS_TYPE":"0","OBJECT_ID":"2021-009P","OBJECT_NAME":"STARLINK-1960","INCLINATION":"53.0569","MEAN_MOTION_DOT":"-0.00002101","COUNTRY_CODE":"US","GP_ID":"188775103","REV_AT_EPOCH":"4145","CENTER_NAME":"EARTH","FILE":"3198350","SITE":"AFETR","TLE_LINE1":"1 47561U 21009P   21306.71245628 -.00002101  00000-0 -12209-3 0  9995","EPOCH":"2021-11-02T17:05:56.222592","TIME_SYSTEM":"UTC","OBJECT_TYPE":"PAYLOAD","LAUNCH_DATE":"2021-02-04","MEAN_ANOMALY":"341.9915","MEAN_ELEMENT_THEORY":"SGP4","TLE_LINE2":"2 47561  53.0569 310.3294 0005457  18.1268 341.9915 15.06385871 41452","MEAN_MOTION_DDOT":"0.0000000000000","PERIAPSIS":"543.478","SEMIMAJOR_AXIS":"6925.392","ELEMENT_SET_NO":"999","ECCENTRICITY":"0.00054570","MEAN_MOTION":"15.06385871","ARG_OF_PERICENTER":"18.1268","REF_FRAME":"TEME","RA_OF_ASC_NODE":"310.3294","RCS_SIZE":"LARGE","DECAY_DATE":null,"APOAPSIS":"551.036","NORAD_CAT_ID":"47561"},{"MEAN_MOTION_DOT":"0.00001332","INCLINATION":"53.0565","EPHEMERIS_TYPE":"0","OBJECT_ID":"2021-009Q","OBJECT_NAME":"STARLINK-1961","COUNTRY_CODE":"US","CLASSIFICATION_TYPE":"U","PERIOD":"95.592","BSTAR":"0.00010828000000","FILE":"3198350","CENTER_NAME":"EARTH","REV_AT_EPOCH":"4145","SITE":"AFETR","GP_ID":"188774351","MEAN_ELEMENT_THEORY":"SGP4","MEAN_ANOMALY":"281.4758","MEAN_MOTION_DDOT":"0.0000000000000","TLE_LINE2":"2 47562  53.0565 310.2620 0001449  78.6394 281.4758 15.06405331 41456","LAUNCH_DATE":"2021-02-04","SEMIMAJOR_AXIS":"6925.332","ELEMENT_SET_NO":"999","ECCENTRICITY":"0.00014490","PERIAPSIS":"546.194","TLE_LINE1":"1 47562U 21009Q   21306.72718054  .00001332  00000-0  10828-3 0  9993","EPOCH":"2021-11-02T17:27:08.398656","OBJECT_TYPE":"PAYLOAD","TIME_SYSTEM":"UTC","DECAY_DATE":null,"APOAPSIS":"548.201","NORAD_CAT_ID":"47562","MEAN_MOTION":"15.06405331","RA_OF_ASC_NODE":"310.2620","RCS_SIZE":"LARGE","ARG_OF_PERICENTER":"78.6394","REF_FRAME":"TEME"}];
